[{"OBJECT_NAME":"STARLINK-31513","OBJECT_ID":"2024-073U","EPOCH":"2026-03-08T09:19:18.443424","MEAN_MOTION":15.27571283,"ECCENTRICITY":9.813e-5,"INCLINATION":43.0017,"RA_OF_ASC_NODE":322.1256,"ARG_OF_PERICENTER":277.8235,"MEAN_ANOMALY":82.2506,"EPHEMERIS_TYPE":0,"CLASSIFICATION_TYPE":"U","NORAD_CAT_ID":59529,"ELEMENT_SET_NO":999,"REV_AT_EPOCH":10601,"BSTAR":-4.7338064e-5,"MEAN_MOTION_DOT":-1.564e-5,"MEAN_MOTION_DDOT":0},{"OBJECT_NAME":"OBJECT M","OBJECT_ID":"2024-205M","EPOCH":"2026-03-09T22:23:47.520096","MEAN_MOTION":15.27663844,"ECCENTRICITY":0.00036602,"INCLINATION":97.3915,"RA_OF_ASC_NODE":144.193,"ARG_OF_PERICENTER":310.2554,"MEAN_ANOMALY":49.8364,"EPHEMERIS_TYPE":0,"CLASSIFICATION_TYPE":"U","NORAD_CAT_ID":61905,"ELEMENT_SET_NO":999,"REV_AT_EPOCH":7334,"BSTAR":0.00036391974,"MEAN_MOTION_DOT":9.771e-5,"MEAN_MOTION_DDOT":0}]
